{"type": "FeatureCollection", "features": [ {"type": "Feature", "properties": {"norad_id": 28649, "name": "IRS-P5 (CARTOSAT-1)", "group": "resource", "lat": 30.93583043075408, "lon": -166.87213337302336, "alt_km": 595.3232133529282, "timestamp": "2025-12-07T22:37:42.739268+00:00", "meta": {"OBJECT_NAME": "IRS-P5 (CARTOSAT-1)", "OBJECT_ID": "2005-017A", "EPOCH": "2025-12-07T01:00:59.611968", "MEAN_MOTION": 14.90376472, "ECCENTRICITY": 0.00016017, "INCLINATION": 97.5494, "RA_OF_ASC_NODE": 7.7084, "ARG_OF_PERICENTER": 50.7068, "MEAN_ANOMALY": 309.4292, "EPHEMERIS_TYPE": 0, "CLASSIFICATION_TYPE": "U", "NORAD_CAT_ID": 28649, "ELEMENT_SET_NO": 999, "REV_AT_EPOCH": 11519, "BSTAR": 0.0003161523, "MEAN_MOTION_DOT": 3.025e-05, "MEAN_MOTION_DDOT": 0}, "tle": {"line1": "1 28649U 05017A   25341.04235662  .00003025  00000+0  31615-3 0  9993", "line2": "2 28649  97.5494   7.7084 0001601  50.7068 309.4292 14.90376472115198"}}, "geometry": {"type": "Point", "coordinates": [-166.87213337302336, 30.93583043075408]}}, {"type": "Feature", "properties": {"norad_id": 28893, "name": "SINAH 1", "group": "resource", "lat": -56.8828840039371, "lon": -82.38035109026202, "alt_km": 686.8486946639277, "timestamp": "2025-12-07T22:37:42.739279+00:00", "meta": {"OBJECT_NAME": "SINAH 1", "OBJECT_ID": "2005-043D", "EPOCH": "2025-12-07T06:47:00.860640", "MEAN_MOTION": 14.63953224, "ECCENTRICITY": 0.00150385, "INCLINATION": 98.2601, "RA_OF_ASC_NODE": 109.8254, "ARG_OF_PERICENTER": 153.277, "MEAN_ANOMALY": 206.921, "EPHEMERIS_TYPE": 0, "CLASSIFICATION_TYPE": "U", "NORAD_CAT_ID": 28893, "ELEMENT_SET_NO": 999, "REV_AT_EPOCH": 7244, "BSTAR": 0.00019871534, "MEAN_MOTION_DOT": 9.93e-06, "MEAN_MOTION_DDOT": 0}, "tle": {"line1": "1 28893U 05043D   25341.28264885  .00000993  00000+0  19872-3 0  9990", "line2": "2 28893  98.2601 109.8254 0015038 153.2770 206.9210 14.63953224 72445"}}, "geometry": {"type": "Point", "coordinates": [-82.38035109026202, -56.8828840039371]}}, {"type": "Feature", "properties": {"norad_id": 29079, "name": "EROS B", "group": "resource", "lat": -81.33157979263505, "lon": -139.54567799261628, "alt_km": 375.2917525326902, "timestamp": "2025-12-07T22:37:42.739291+00:00", "meta": {"OBJECT_NAME": "EROS B", "OBJECT_ID": "2006-014A", "EPOCH": "2025-12-07T06:09:56.460672", "MEAN_MOTION": 15.66165032, "ECCENTRICITY": 0.0001726, "INCLINATION": 97.349, "RA_OF_ASC_NODE": 97.5783, "ARG_OF_PERICENTER": 263.3516, "MEAN_ANOMALY": 96.7548, "EPHEMERIS_TYPE": 0, "CLASSIFICATION_TYPE": "U", "NORAD_CAT_ID": 29079, "ELEMENT_SET_NO": 999, "REV_AT_EPOCH": 8994, "BSTAR": 0.0018515859, "MEAN_MOTION_DOT": 0.00194203, "MEAN_MOTION_DDOT": 0}, "tle": {"line1": "1 29079U 06014A   25341.25690348  .00194203  00000+0  18516-2 0  9991", "line2": "2 29079  97.3490  97.5783 0001726 263.3516  96.7548 15.66165032 89946"}}, "geometry": {"type": "Point", "coordinates": [-139.54567799261628, -81.33157979263505]}}, {"type": "Feature", "properties": {"norad_id": 29228, "name": "RESURS-DK 1", "group": "resource", "lat": 38.37137133031593, "lon": 131.0581601670624, "alt_km": 530.3759467342543, "timestamp": "2025-12-07T22:37:42.739302+00:00", "meta": {"OBJECT_NAME": "RESURS-DK 1", "OBJECT_ID": "2006-021A", "EPOCH": "2025-12-06T19:27:22.890240", "MEAN_MOTION": 15.12110904, "ECCENTRICITY": 0.00077341, "INCLINATION": 69.9341, "RA_OF_ASC_NODE": 117.1593, "ARG_OF_PERICENTER": 263.3376, "MEAN_ANOMALY": 96.691, "EPHEMERIS_TYPE": 0, "CLASSIFICATION_TYPE": "U", "NORAD_CAT_ID": 29228, "ELEMENT_SET_NO": 999, "REV_AT_EPOCH": 7348, "BSTAR": 0.00030168792, "MEAN_MOTION_DOT": 5.106e-05, "MEAN_MOTION_DDOT": 0}, "tle": {"line1": "1 29228U 06021A   25340.81068160  .00005106  00000+0  30169-3 0  9999", "line2": "2 29228  69.9341 117.1593 0007734 263.3376  96.6910 15.12110904 73482"}}, "geometry": {"type": "Point", "coordinates": [131.0581601670624, 38.37137133031593]}}, {"type": "Feature", "properties": {"norad_id": 29268, "name": "ARIRANG-2 (KOMPSAT-2)", "group": "resource", "lat": 45.29566419729648, "lon": -1.3615598292175544, "alt_km": 684.3632241103924, "timestamp": "2025-12-07T22:37:42.739313+00:00", "meta": {"OBJECT_NAME": "ARIRANG-2 (KOMPSAT-2)", "OBJECT_ID": "2006-031A", "EPOCH": "2025-12-07T05:52:09.503616", "MEAN_MOTION": 14.64486388, "ECCENTRICITY": 0.0013761, "INCLINATION": 97.827, "RA_OF_ASC_NODE": 169.9855, "ARG_OF_PERICENTER": 327.4052, "MEAN_ANOMALY": 87.3068, "EPHEMERIS_TYPE": 0, "CLASSIFICATION_TYPE": "U", "NORAD_CAT_ID": 29268, "ELEMENT_SET_NO": 999, "REV_AT_EPOCH": 3338, "BSTAR": 0.0001513705, "MEAN_MOTION_DOT": 7.58e-06, "MEAN_MOTION_DDOT": 0}, "tle": {"line1": "1 29268U 06031A   25341.24455444  .00000758  00000+0  15137-3 0  9993", "line2": "2 29268  97.8270 169.9855 0013761 327.4052  87.3068 14.64486388 33387"}}, "geometry": {"type": "Point", "coordinates": [-1.3615598292175544, 45.29566419729648]}}, {"type": "Feature", "properties": {"norad_id": 29709, "name": "LAPAN-TUBSAT", "group": "resource", "lat": 62.12779287417879, "lon": -43.67199842595579, "alt_km": 596.8236298533411, "timestamp": "2025-12-07T22:37:42.739323+00:00", "meta": {"OBJECT_NAME": "LAPAN-TUBSAT", "OBJECT_ID": "2007-001A", "EPOCH": "2025-12-07T06:10:51.567456", "MEAN_MOTION": 14.85657922, "ECCENTRICITY": 0.00136381, "INCLINATION": 98.1252, "RA_OF_ASC_NODE": 331.3015, "ARG_OF_PERICENTER": 90.5292, "MEAN_ANOMALY": 269.7485, "EPHEMERIS_TYPE": 0, "CLASSIFICATION_TYPE": "U", "NORAD_CAT_ID": 29709, "ELEMENT_SET_NO": 999, "REV_AT_EPOCH": 2265, "BSTAR": 0.00014520992, "MEAN_MOTION_DOT": 1.203e-05, "MEAN_MOTION_DDOT": 0}, "tle": {"line1": "1 29709U 07001A   25341.25754129  .00001203  00000+0  14521-3 0  9996", "line2": "2 29709  98.1252 331.3015 0013638  90.5292 269.7485 14.85657922 22655"}}, "geometry": {"type": "Point", "coordinates": [-43.67199842595579, 62.12779287417879]}}, {"type": "Feature", "properties": {"norad_id": 31113, "name": "HAIYANG-1B", "group": "resource", "lat": 7.839432226546109, "lon": 147.57521520320984, "alt_km": 795.6820511168007, "timestamp": "2025-12-07T22:37:42.739339+00:00", "meta": {"OBJECT_NAME": "HAIYANG-1B", "OBJECT_ID": "2007-010A", "EPOCH": "2025-12-07T05:02:49.862112", "MEAN_MOTION": 14.30962174, "ECCENTRICITY": 0.00144822, "INCLINATION": 98.3309, "RA_OF_ASC_NODE": 325.717, "ARG_OF_PERICENTER": 53.3397, "MEAN_ANOMALY": 306.9116, "EPHEMERIS_TYPE": 0, "CLASSIFICATION_TYPE": "U", "NORAD_CAT_ID": 31113, "ELEMENT_SET_NO": 999, "REV_AT_EPOCH": 97317, "BSTAR": 0.00010554065, "MEAN_MOTION_DOT": 2.36e-06, "MEAN_MOTION_DDOT": 0}, "tle": {"line1": "1 31113U 07010A   25341.21029933  .00000236  00000+0  10554-3 0  9999", "line2": "2 31113  98.3309 325.7170 0014482  53.3397 306.9116 14.30962174973177"}}, "geometry": {"type": "Point", "coordinates": [147.57521520320984, 7.839432226546109]}}, {"type": "Feature", "properties": {"norad_id": 31598, "name": "COSMO-SKYMED 1", "group": "resource", "lat": -25.72473671287578, "lon": -16.517089865119548, "alt_km": 586.3471793669614, "timestamp": "2025-12-07T22:37:42.739362+00:00", "meta": {"OBJECT_NAME": "COSMO-SKYMED 1", "OBJECT_ID": "2007-023A", "EPOCH": "2025-12-07T05:39:18.552960", "MEAN_MOTION": 14.95703261, "ECCENTRICITY": 0.000111, "INCLINATION": 97.8835, "RA_OF_ASC_NODE": 166.5993, "ARG_OF_PERICENTER": 79.3403, "MEAN_ANOMALY": 280.7942, "EPHEMERIS_TYPE": 0, "CLASSIFICATION_TYPE": "U", "NORAD_CAT_ID": 31598, "ELEMENT_SET_NO": 999, "REV_AT_EPOCH": 108, "BSTAR": 0.00051559784, "MEAN_MOTION_DOT": 5.682e-05, "MEAN_MOTION_DDOT": 0}, "tle": {"line1": "1 31598U 07023A   25341.23563140  .00005682  00000+0  51560-3 0  9997", "line2": "2 31598  97.8835 166.5993 0001110  79.3403 280.7942 14.95703261  1085"}}, "geometry": {"type": "Point", "coordinates": [-16.517089865119548, -25.72473671287578]}}, {"type": "Feature", "properties": {"norad_id": 31698, "name": "TERRASAR-X", "group": "resource", "lat": 1.6892097428884825, "lon": 167.61455276149434, "alt_km": 511.4609059393979, "timestamp": "2025-12-07T22:37:42.739383+00:00", "meta": {"OBJECT_NAME": "TERRASAR-X", "OBJECT_ID": "2007-026A", "EPOCH": "2025-12-06T14:13:48.566208", "MEAN_MOTION": 15.19149934, "ECCENTRICITY": 0.00017836, "INCLINATION": 97.4444, "RA_OF_ASC_NODE": 346.0634, "ARG_OF_PERICENTER": 82.9925, "MEAN_ANOMALY": 277.1512, "EPHEMERIS_TYPE": 0, "CLASSIFICATION_TYPE": "U", "NORAD_CAT_ID": 31698, "ELEMENT_SET_NO": 999, "REV_AT_EPOCH": 2398, "BSTAR": 0.00013540591, "MEAN_MOTION_DOT": 2.777e-05, "MEAN_MOTION_DDOT": 0}, "tle": {"line1": "1 31698U 07026A   25340.59292322  .00002777  00000+0  13541-3 0  9999", "line2": "2 31698  97.4444 346.0634 0001783  82.9925 277.1512 15.19149934 23984"}}, "geometry": {"type": "Point", "coordinates": [167.61455276149434, 1.6892097428884825]}}, {"type": "Feature", "properties": {"norad_id": 32060, "name": "WORLDVIEW-1 (WV-1)", "group": "resource", "lat": 81.11403939099645, "lon": 43.44032967681472, "alt_km": 484.15635148422734, "timestamp": "2025-12-07T22:37:42.739398+00:00", "meta": {"OBJECT_NAME": "WORLDVIEW-1 (WV-1)", "OBJECT_ID": "2007-041A", "EPOCH": "2025-12-07T08:04:47.408448", "MEAN_MOTION": 15.245567, "ECCENTRICITY": 7.36e-05, "INCLINATION": 97.3846, "RA_OF_ASC_NODE": 98.8947, "ARG_OF_PERICENTER": 101.0462, "MEAN_ANOMALY": 259.0858, "EPHEMERIS_TYPE": 0, "CLASSIFICATION_TYPE": "U", "NORAD_CAT_ID": 32060, "ELEMENT_SET_NO": 999, "REV_AT_EPOCH": 1365, "BSTAR": 0.00054879315, "MEAN_MOTION_DOT": 0.00013456, "MEAN_MOTION_DDOT": 0}, "tle": {"line1": "1 32060U 07041A   25341.33665982  .00013456  00000+0  54879-3 0  9994", "line2": "2 32060  97.3846  98.8947 0000736 101.0462 259.0858 15.24556700 13652"}}, "geometry": {"type": "Point", "coordinates": [43.44032967681472, 81.11403939099645]}}]}